API VERSION: 1.2
API SOURCE: NASA/JPL Horizons API

*******************************************************************************
 Revised: April 12, 2021        Mars Barycenter                               4
 
 Dynamical point:
 ---------------
 The common center of mass about which the Martian system (planet and
 satellites Phobos and Deimos) revolve.
*******************************************************************************


*******************************************************************************
Ephemeris / API_USER Sat May 17 05:21:52 2025 Pasadena, USA      / Horizons
*******************************************************************************
Target body name: Mars Barycenter (4)             {source: DE441}
Center body name: Sun (10)                        {source: DE441}
Center-site name: BODY CENTER
*******************************************************************************
Start time      : A.D. 2005-Jan-01 00:00:00.0000 TDB
Stop  time      : A.D. 2025-Jan-01 00:00:00.0000 TDB
Step-size       : 1440 minutes
*******************************************************************************
Center geodetic : 0.0, 0.0, 0.0                   {E-lon(deg),Lat(deg),Alt(km)}
Center cylindric: 0.0, 0.0, 0.0                   {E-lon(deg),Dxy(km),Dz(km)}
Center radii    : 695700.0, 695700.0, 695700.0 km {Equator_a, b, pole_c}
Output units    : KM-S
Calendar mode   : Mixed Julian/Gregorian
Output type     : GEOMETRIC cartesian states
Output format   : 3 (position, velocity, LT, range, range-rate)
Reference frame : Ecliptic of J2000.0
*******************************************************************************
JDTDB
   X     Y     Z
   VX    VY    VZ
   LT    RG    RR
*******************************************************************************
$$SOE
2459635.500000000 = A.D. 2022-Feb-25 00:00:00.0000 TDB 
 X =-1.819729261670738E+07 Y =-2.184702994226368E+08 Z =-4.132263087332472E+06
 VX= 2.505751852158404E+01 VY= 7.234634926520991E-02 VZ=-6.131439449747002E-01
 LT= 7.313919646355658E+02 RG= 2.192657948395453E+08 RR=-2.140100573481074E+00
2459636.500000000 = A.D. 2022-Feb-26 00:00:00.0000 TDB 
 X =-1.603150094849859E+07 Y =-2.184537742230320E+08 Z =-4.185043559897214E+06
 VX= 2.507616260926297E+01 VY= 3.102786283958969E-01 VZ=-6.086147650938257E-01
 LT= 7.307762445386644E+02 RG= 2.190812065982553E+08 RR=-2.132738768609376E+00
2459637.500000000 = A.D. 2022-Feb-27 00:00:00.0000 TDB 
 X =-1.386419848735818E+07 Y =-2.184166668036049E+08 Z =-4.237429735596091E+06
 VX= 2.509248831719751E+01 VY= 5.487828435851232E-01 VZ=-6.040167263997213E-01
 LT= 7.301626777807980E+02 RG= 2.188972639117674E+08 RR=-2.125157123098961E+00
2459638.500000000 = A.D. 2022-Feb-28 00:00:00.0000 TDB 
 X =-1.169558612491310E+07 Y =-2.183589287329819E+08 Z =-4.289415671330601E+06
 VX= 2.510648217008756E+01 VY= 7.878361696343201E-01 VZ=-5.993499766781767E-01
 LT= 7.295513277636410E+02 RG= 2.187139857874256E+08 RR=-2.117355338217011E+00
2459639.500000000 = A.D. 2022-Mar-01 00:00:00.0000 TDB 
 X =-9.525865908059416E+06 Y =-2.182805135647552E+08 Z =-4.340995437261090E+06
 VX= 2.511813090196301E+01 VY= 1.027415483597164E+00 VZ=-5.946146750835427E-01
 LT= 7.289422579707878E+02 RG= 2.185313912571325E+08 RR=-2.109333144286393E+00
2459640.500000000 = A.D. 2022-Mar-02 00:00:00.0000 TDB 
 X =-7.355241020597982E+06 Y =-2.181813768631708E+08 Z =-4.392163117794976E+06
 VX= 2.512742146263315E+01 VY= 1.267497365668794E+00 VZ=-5.898109922785252E-01
 LT= 7.283355319593043E+02 RG= 2.183494993748174E+08 RR=-2.101090301203723E+00
2459641.500000000 = A.D. 2022-Mar-03 00:00:00.0000 TDB 
 X =-5.183915764310768E+06 Y =-2.180614762287335E+08 Z =-4.442912812587157E+06
 VX= 2.513434102418165E+01 VY= 1.508058100212888E+00 VZ=-5.849391105722938E-01
 LT= 7.277312133511306E+02 RG= 2.181683292138578E+08 RR=-2.092626598957314E+00
2459642.500000000 = A.D. 2022-Mar-04 00:00:00.0000 TDB 
 X =-3.012095539474259E+06 Y =-2.179207713237178E+08 Z =-4.493238637551948E+06
 VX= 2.513887698750455E+01 VY= 1.749073676928978E+00 VZ=-5.799992240568044E-01
 LT= 7.271293658243336E+02 RG= 2.179878998644581E+08 RR=-2.083941858144456E+00
2459643.500000000 = A.D. 2022-Mar-05 00:00:00.0000 TDB 
 X =-8.399868248061449E+05 Y =-2.177592238975707E+08 Z =-4.543134725887150E+06
 VX= 2.514101698888848E+01 VY= 1.990519792162355E+00 VZ=-5.749915387412265E-01
 LT= 7.265300531042111E+02 RG= 2.178082304309819E+08 RR=-2.075035930487440E+00
2459644.500000000 = A.D. 2022-Mar-06 00:00:00.0000 TDB 
 X = 1.332202843157965E+06 Y =-2.175767978121961E+08 Z =-4.592595229109377E+06
 VX= 2.514074890662659E+01 VY= 2.232371850358855E+00 VZ=-5.699162726843623E-01
 LT= 7.259333389542477E+02 RG= 2.176293400292411E+08 RR=-2.065908699347739E+00
2459645.500000000 = A.D. 2022-Mar-07 00:00:00.0000 TDB 
 X = 3.504264891260963E+06 Y =-2.173734590671068E+08 Z =-4.641614318100736E+06
 VX= 2.513806086766872E+01 VY= 2.474604965666773E+00 VZ=-5.647736561249306E-01
 LT= 7.253392871669225E+02 RG= 2.174512477837396E+08 RR=-2.056560080237709E+00
2459646.500000000 = A.D. 2022-Mar-08 00:00:00.0000 TDB 
 X = 5.675989731496614E+06 Y =-2.171491758244315E+08 Z =-4.690186184166715E+06
 VX= 2.513294125430318E+01 VY= 2.717193963688115E+00 VZ=-5.595639316096014E-01
 LT= 7.247479615543696E+02 RG= 2.172739728248740E+08 RR=-2.046990021329198E+00
2459647.500000000 = A.D. 2022-Mar-09 00:00:00.0000 TDB 
 X = 7.847166783360481E+06 Y =-2.169039184337642E+08 Z =-4.738305040105119E+06
 VX= 2.512537871086676E+01 VY= 2.960113383381300E+00 VZ=-5.542873541186446E-01
 LT= 7.241594259388938E+02 RG= 2.170975342860899E+08 RR=-2.037198503958392E+00
2459648.500000000 = A.D. 2022-Mar-10 00:00:00.0000 TDB 
 X = 1.001758449678169E+07 Y =-2.166376594568421E+08 Z =-4.785965121285602E+06
 VX= 2.511536215047965E+01 VY= 3.203337479117430E+00 VZ=-5.489441911890718E-01
 LT= 7.235737441433382E+02 RG= 2.169219513009945E+08 RR=-2.027185543126261E+00
2459649.500000000 = A.D. 2022-Mar-11 00:00:00.0000 TDB 
 X = 1.218703037563758E+07 Y =-2.163503736920404E+08 Z =-4.833160686739832E+06
 VX= 2.510288076180196E+01 VY= 3.446840222892119E+00 VZ=-5.435347230351382E-01
 LT= 7.229909799813137E+02 RG= 2.167472430004268E+08 RR=-2.016951187993957E+00
2459650.500000000 = A.D. 2022-Mar-12 00:00:00.0000 TDB 
 X = 1.435529100185283E+07 Y =-2.160420381986671E+08 Z =-4.879886020261884E+06
 VX= 2.508792401580820E+01 VY= 3.690595306694844E+00 VZ=-5.380592426660813E-01
 LT= 7.224111972472800E+02 RG= 2.165734285094849E+08 RR=-2.006495522372449E+00
2459651.500000000 = A.D. 2022-Mar-13 00:00:00.0000 TDB 
 X = 1.652215206008471E+07 Y =-2.157126323210489E+08 Z =-4.926135431518689E+06
 VX= 2.507048167257637E+01 VY= 3.934576145037778E+00 VZ=-5.325180560009570E-01
 LT= 7.218344597064930E+02 RG= 2.164005269445115E+08 RR=-1.995818665205864E+00
2459652.500000000 = A.D. 2022-Mar-14 00:00:00.0000 TDB 
 X = 1.868739836299524E+07 Y =-2.153621377123887E+08 Z =-4.971903257170409E+06
 VX= 2.505054378808790E+01 VY= 4.178755877645758E+00 VZ=-5.269114819804932E-01
 LT= 7.212608310848079E+02 RG= 2.162285574100374E+08 RR=-1.984920771047620E+00
2459653.500000000 = A.D. 2022-Mar-15 00:00:00.0000 TDB 
 X = 2.085081387711129E+07 Y =-2.149905383583863E+08 Z =-5.017183862000033E+06
 VX= 2.502810072103470E+01 VY= 4.423107372309450E+00 VZ=-5.212398526757778E-01
 LT= 7.206903750583504E+02 RG= 2.160575389956847E+08 RR=-1.973802030529043E+00
2459654.500000000 = A.D. 2022-Mar-16 00:00:00.0000 TDB 
 X = 2.301218174927302E+07 Y =-2.145978206006038E+08 Z =-5.061971640052631E+06
 VX= 2.500314313962978E+01 VY= 4.667603227903187E+00 VZ=-5.155035133937387E-01
 LT= 7.201231552430521E+02 RG= 2.158874907730302E+08 RR=-1.962462670819546E+00
2459655.500000000 = A.D. 2022-Mar-17 00:00:00.0000 TDB 
 X = 2.517128433367065E+07 Y =-2.141839731595634E+08 Z =-5.106261015783206E+06
 VX= 2.497566202841758E+01 VY= 4.912215777569198E+00 VZ=-5.097028227792797E-01
 LT= 7.195592351840552E+02 RG= 2.157184317924280E+08 RR=-1.950902956077787E+00
2459656.500000000 = A.D. 2022-Mar-18 00:00:00.0000 TDB 
 X = 2.732790321946964E+07 Y =-2.137489871575640E+08 Z =-5.150046445213482E+06
 VX= 2.494564869508038E+01 VY= 5.156917092069961E+00 VZ=-5.038381529139913E-01
 LT= 7.189986783449883E+02 RG= 2.155503810797954E+08 RR=-1.939123187893266E+00
2459657.500000000 = A.D. 2022-Mar-19 00:00:00.0000 TDB 
 X = 2.948181925902351E+07 Y =-2.132928561411987E+08 Z =-5.193322417096898E+06
 VX= 2.491309477723694E+01 VY= 5.401678983310245E+00 VZ=-4.979098894113414E-01
 LT= 7.184415480971163E+02 RG= 2.153833576333597E+08 RR=-1.927123705717754E+00
2459658.500000000 = A.D. 2022-Mar-20 00:00:00.0000 TDB 
 X = 3.163281259667372E+07 Y =-2.128155761035625E+08 Z =-5.236083454091862E+06
 VX= 2.487799224922993E+01 VY= 5.646473008030487E+00 VZ=-4.919184315082945E-01
 LT= 7.178879077083678E+02 RG= 2.152173804203687E+08 RR=-1.914904887285975E+00
2459659.500000000 = A.D. 2022-Mar-21 00:00:00.0000 TDB 
 X = 3.378066269813525E+07 Y =-2.123171455061327E+08 Z =-5.278324113942474E+06
 VX= 2.484033342889831E+01 VY= 5.891270471673147E+00 VZ=-4.858641921532798E-01
 LT= 7.173378203322424E+02 RG= 2.150524683737653E+08 RR=-1.902467149025060E+00
2459660.500000000 = A.D. 2022-Mar-22 00:00:00.0000 TDB 
 X = 3.592514838046666E+07 Y =-2.117975653003073E+08 Z =-5.320038990667045E+06
 VX= 2.480011098433148E+01 VY= 6.136042432423873E+00 VZ=-4.797475980904580E-01
 LT= 7.167913489966023E+02 RG= 2.148886403888272E+08 RR=-1.889810946452416E+00
2459661.500000000 = A.D. 2022-Mar-23 00:00:00.0000 TDB 
 X = 3.806604784262268E+07 Y =-2.112568389485878E+08 Z =-5.361222715753391E+06
 VX= 2.475731794060134E+01 VY= 6.380759705429419E+00 VZ=-4.735690899402309E-01
 LT= 7.162485565923507E+02 RG= 2.147259153197729E+08 RR=-1.876936774561794E+00
